[{"OBJECT_NAME":"STARLINK-5930","OBJECT_ID":"2023-037Q","EPOCH":"2026-03-09T23:23:47.515200","MEAN_MOTION":14.98311549,"ECCENTRICITY":0.00030976,"INCLINATION":69.9994,"RA_OF_ASC_NODE":303.587,"ARG_OF_PERICENTER":265.0887,"MEAN_ANOMALY":94.9918,"EPHEMERIS_TYPE":0,"CLASSIFICATION_TYPE":"U","NORAD_CAT_ID":55928,"ELEMENT_SET_NO":999,"REV_AT_EPOCH":16353,"BSTAR":0.00013686691,"MEAN_MOTION_DOT":1.54e-5,"MEAN_MOTION_DDOT":0},{"OBJECT_NAME":"ICEYE-X33","OBJECT_ID":"2024-149CJ","EPOCH":"2026-03-09T17:04:13.303776","MEAN_MOTION":15.0113344,"ECCENTRICITY":0.00060627,"INCLINATION":97.7033,"RA_OF_ASC_NODE":148.5516,"ARG_OF_PERICENTER":122.8099,"MEAN_ANOMALY":237.371,"EPHEMERIS_TYPE":0,"CLASSIFICATION_TYPE":"U","NORAD_CAT_ID":60548,"ELEMENT_SET_NO":999,"REV_AT_EPOCH":8528,"BSTAR":0.00045891369,"MEAN_MOTION_DOT":5.822e-5,"MEAN_MOTION_DDOT":0}]
